SL-8 R/B                
1 20775U 90078B   26065.01406699  .00016063  00000+0  47245-3 0  9999
2 20775  82.8998 254.6172 0363108  26.3439 335.5743 14.88915377808753
SL-8 R/B                
1 21088U 91006B   26065.27662699  .00000087  00000+0  71800-4 0  9995
2 21088  82.9465 172.5831 0023271  47.5828 341.7133 13.77493790763605
OKEAN-3                 
1 21397U 91039A   26065.22121296  .00004120  00000+0  28972-3 0  9995
2 21397  82.5194 340.2031 0014181 351.1011   8.9961 15.04773092864518
COSMOS 2151             
1 21422U 91042A   26065.28143963  .00002448  00000+0  19400-3 0  9996
2 21422  82.4929  86.9647 0014031  73.9011 286.3757 15.00089723862680
SL-14 R/B               
1 21423U 91042B   26065.17886949  .00000677  00000+0  82637-4 0  9998
2 21423  82.4916 223.4745 0015637 251.1093 108.8426 14.81825215852555
ERS-1                   
1 21574U 91050A   26065.01324392  .00000359  00000+0  12940-3 0  9992
2 21574  98.7885  83.1554 0031425 211.5317 148.3988 14.39445646815200
ARIANE 40 R/B           
1 21610U 91050F   26065.14228823  .00000350  00000+0  11735-3 0  9991
2 21610  98.2018 117.5116 0004364  88.9812 271.1879 14.42890328818480
INTERCOSMOS 25          
1 21819U 91086A   26065.19043453  .00001507  00000+0  28848-3 0  9998
2 21819  82.6055 312.1236 1487000 124.4693 250.6025 12.11988147496265
SL-8 R/B                
1 21876U 92008B   26065.09697720  .00000007  00000+0 -86029-5 0  9999
2 21876  82.9226 270.4516 0035369 143.1138 332.5712 13.75969768708927
SL-8 R/B                
1 21938U 92020B   26065.27206191  .00000107  00000+0  95100-4 0  9999
2 21938  82.9341 156.2985 0027789 308.7518 105.3603 13.75549092700665
USA 81                  
1 21949U 92023A   26065.23577619  .00000235  00000+0  79676-4 0  9998
2 21949  85.0091 133.4337 0002553  80.2167 279.9314 14.32366676 94296
COSMOS 2219             
1 22219U 92076A   26065.26705023  .00000256  00000+0  15881-3 0  9992
2 22219  71.0627  25.2216 0019212 211.6090 148.3880 14.14091130717891
SL-16 R/B               
1 22220U 92076B   26065.29985562 -.00000067  00000+0 -94825-5 0  9994
2 22220  71.0003 195.5133 0010513 102.6202 278.0697 14.16860302721359
COSMOS 2221             
1 22236U 92080A   26065.09282396  .00002017  00000+0  17651-3 0  9994
2 22236  82.5012 282.5271 0013739 199.5549 160.5148 14.96183707780250
SL-16 R/B               
1 22285U 92093B   26065.27666241 -.00000188  00000+0 -71813-4 0  9997
2 22285  71.0240  11.4299 0006367 297.2830  62.7644 14.15448948712674
COSMOS 2228             
1 22286U 92094A   26065.24523628  .00003105  00000+0  26582-3 0  9999
2 22286  82.5148 240.6091 0016989 316.9590  43.0303 14.97170084775540
SL-16 R/B               
1 22566U 93016B   26064.89269229  .00000266  00000+0  16093-3 0  9990
2 22566  71.0063 223.1556 0011524 319.4689  40.5575 14.15306792701638
