[{"OBJECT_NAME":"SL-8 R/B","OBJECT_ID":"1990-078B","EPOCH":"2026-03-06T00:20:15.387936","MEAN_MOTION":14.88915377,"ECCENTRICITY":0.03631086,"INCLINATION":82.8998,"RA_OF_ASC_NODE":254.6172,"ARG_OF_PERICENTER":26.3439,"MEAN_ANOMALY":335.5743,"EPHEMERIS_TYPE":0,"CLASSIFICATION_TYPE":"U","NORAD_CAT_ID":20775,"ELEMENT_SET_NO":999,"REV_AT_EPOCH":80875,"BSTAR":0.00047245186,"MEAN_MOTION_DOT":0.00016063,"MEAN_MOTION_DDOT":0},{"OBJECT_NAME":"SL-8 R/B","OBJECT_ID":"1991-006B","EPOCH":"2026-03-06T06:38:20.571936","MEAN_MOTION":13.7749379,"ECCENTRICITY":0.00232711,"INCLINATION":82.9465,"RA_OF_ASC_NODE":172.5831,"ARG_OF_PERICENTER":47.5828,"MEAN_ANOMALY":341.7133,"EPHEMERIS_TYPE":0,"CLASSIFICATION_TYPE":"U","NORAD_CAT_ID":21088,"ELEMENT_SET_NO":999,"REV_AT_EPOCH":76360,"BSTAR":7.1800458e-5,"MEAN_MOTION_DOT":8.7e-7,"MEAN_MOTION_DDOT":0},{"OBJECT_NAME":"OKEAN-3","OBJECT_ID":"1991-039A","EPOCH":"2026-03-06T05:18:32.799744","MEAN_MOTION":15.04773092,"ECCENTRICITY":0.0014181,"INCLINATION":82.5194,"RA_OF_ASC_NODE":340.2031,"ARG_OF_PERICENTER":351.1011,"MEAN_ANOMALY":8.9961,"EPHEMERIS_TYPE":0,"CLASSIFICATION_TYPE":"U","NORAD_CAT_ID":21397,"ELEMENT_SET_NO":999,"REV_AT_EPOCH":86451,"BSTAR":0.00028972421,"MEAN_MOTION_DOT":4.12e-5,"MEAN_MOTION_DDOT":0},{"OBJECT_NAME":"COSMOS 2151","OBJECT_ID":"1991-042A","EPOCH":"2026-03-06T06:45:16.384032","MEAN_MOTION":15.00089723,"ECCENTRICITY":0.00140319,"INCLINATION":82.4929,"RA_OF_ASC_NODE":86.9647,"ARG_OF_PERICENTER":73.9011,"MEAN_ANOMALY":286.3757,"EPHEMERIS_TYPE":0,"CLASSIFICATION_TYPE":"U","NORAD_CAT_ID":21422,"ELEMENT_SET_NO":999,"REV_AT_EPOCH":86268,"BSTAR":0.00019399921,"MEAN_MOTION_DOT":2.448e-5,"MEAN_MOTION_DDOT":0},{"OBJECT_NAME":"SL-14 R/B","OBJECT_ID":"1991-042B","EPOCH":"2026-03-06T04:17:34.323936","MEAN_MOTION":14.81825215,"ECCENTRICITY":0.00156371,"INCLINATION":82.4916,"RA_OF_ASC_NODE":223.4745,"ARG_OF_PERICENTER":251.1093,"MEAN_ANOMALY":108.8426,"EPHEMERIS_TYPE":0,"CLASSIFICATION_TYPE":"U","NORAD_CAT_ID":21423,"ELEMENT_SET_NO":999,"REV_AT_EPOCH":85255,"BSTAR":8.2636831e-5,"MEAN_MOTION_DOT":6.77e-6,"MEAN_MOTION_DDOT":0},{"OBJECT_NAME":"ERS-1","OBJECT_ID":"1991-050A","EPOCH":"2026-03-06T00:19:04.274688","MEAN_MOTION":14.39445646,"ECCENTRICITY":0.00314254,"INCLINATION":98.7885,"RA_OF_ASC_NODE":83.1554,"ARG_OF_PERICENTER":211.5317,"MEAN_ANOMALY":148.3988,"EPHEMERIS_TYPE":0,"CLASSIFICATION_TYPE":"U","NORAD_CAT_ID":21574,"ELEMENT_SET_NO":999,"REV_AT_EPOCH":81520,"BSTAR":0.00012940215,"MEAN_MOTION_DOT":3.59e-6,"MEAN_MOTION_DDOT":0},{"OBJECT_NAME":"ARIANE 40 R/B","OBJECT_ID":"1991-050F","EPOCH":"2026-03-06T03:24:53.703072","MEAN_MOTION":14.42890328,"ECCENTRICITY":0.00043643,"INCLINATION":98.2018,"RA_OF_ASC_NODE":117.5116,"ARG_OF_PERICENTER":88.9812,"MEAN_ANOMALY":271.1879,"EPHEMERIS_TYPE":0,"CLASSIFICATION_TYPE":"U","NORAD_CAT_ID":21610,"ELEMENT_SET_NO":999,"REV_AT_EPOCH":81848,"BSTAR":0.00011734743,"MEAN_MOTION_DOT":3.5e-6,"MEAN_MOTION_DDOT":0},{"OBJECT_NAME":"INTERCOSMOS 25","OBJECT_ID":"1991-086A","EPOCH":"2026-03-06T04:34:13.543392","MEAN_MOTION":12.11988147,"ECCENTRICITY":0.14870008,"INCLINATION":82.6055,"RA_OF_ASC_NODE":312.1236,"ARG_OF_PERICENTER":124.4693,"MEAN_ANOMALY":250.6025,"EPHEMERIS_TYPE":0,"CLASSIFICATION_TYPE":"U","NORAD_CAT_ID":21819,"ELEMENT_SET_NO":999,"REV_AT_EPOCH":49626,"BSTAR":0.00028848223,"MEAN_MOTION_DOT":1.507e-5,"MEAN_MOTION_DDOT":0},{"OBJECT_NAME":"SL-8 R/B","OBJECT_ID":"1992-008B","EPOCH":"2026-03-06T02:19:38.830080","MEAN_MOTION":13.75969768,"ECCENTRICITY":0.00353691,"INCLINATION":82.9226,"RA_OF_ASC_NODE":270.4516,"ARG_OF_PERICENTER":143.1138,"MEAN_ANOMALY":332.5712,"EPHEMERIS_TYPE":0,"CLASSIFICATION_TYPE":"U","NORAD_CAT_ID":21876,"ELEMENT_SET_NO":999,"REV_AT_EPOCH":70892,"BSTAR":-8.602894e-6,"MEAN_MOTION_DOT":7.0e-8,"MEAN_MOTION_DDOT":0},{"OBJECT_NAME":"SL-8 R/B","OBJECT_ID":"1992-020B","EPOCH":"2026-03-06T06:31:46.149024","MEAN_MOTION":13.75549092,"ECCENTRICITY":0.00277891,"INCLINATION":82.9341,"RA_OF_ASC_NODE":156.2985,"ARG_OF_PERICENTER":308.7518,"MEAN_ANOMALY":105.3603,"EPHEMERIS_TYPE":0,"CLASSIFICATION_TYPE":"U","NORAD_CAT_ID":21938,"ELEMENT_SET_NO":999,"REV_AT_EPOCH":70066,"BSTAR":9.5099728e-5,"MEAN_MOTION_DOT":1.07e-6,"MEAN_MOTION_DDOT":0},{"OBJECT_NAME":"USA 81","OBJECT_ID":"1992-023A","EPOCH":"2026-03-06T05:39:31.062816","MEAN_MOTION":14.32366676,"ECCENTRICITY":0.00025538,"INCLINATION":85.0091,"RA_OF_ASC_NODE":133.4337,"ARG_OF_PERICENTER":80.2167,"MEAN_ANOMALY":279.9314,"EPHEMERIS_TYPE":0,"CLASSIFICATION_TYPE":"U","NORAD_CAT_ID":21949,"ELEMENT_SET_NO":999,"REV_AT_EPOCH":9429,"BSTAR":7.967619e-5,"MEAN_MOTION_DOT":2.35e-6,"MEAN_MOTION_DDOT":0},{"OBJECT_NAME":"COSMOS 2219","OBJECT_ID":"1992-076A","EPOCH":"2026-03-06T06:24:33.139872","MEAN_MOTION":14.1409113,"ECCENTRICITY":0.00192123,"INCLINATION":71.0627,"RA_OF_ASC_NODE":25.2216,"ARG_OF_PERICENTER":211.609,"MEAN_ANOMALY":148.388,"EPHEMERIS_TYPE":0,"CLASSIFICATION_TYPE":"U","NORAD_CAT_ID":22219,"ELEMENT_SET_NO":999,"REV_AT_EPOCH":71789,"BSTAR":0.00015880907,"MEAN_MOTION_DOT":2.56e-6,"MEAN_MOTION_DDOT":0},{"OBJECT_NAME":"SL-16 R/B","OBJECT_ID":"1992-076B","EPOCH":"2026-03-06T07:11:47.525568","MEAN_MOTION":14.16860302,"ECCENTRICITY":0.00105132,"INCLINATION":71.0003,"RA_OF_ASC_NODE":195.5133,"ARG_OF_PERICENTER":102.6202,"MEAN_ANOMALY":278.0697,"EPHEMERIS_TYPE":0,"CLASSIFICATION_TYPE":"U","NORAD_CAT_ID":22220,"ELEMENT_SET_NO":999,"REV_AT_EPOCH":72135,"BSTAR":-9.482532e-6,"MEAN_MOTION_DOT":-6.7e-7,"MEAN_MOTION_DDOT":0},{"OBJECT_NAME":"COSMOS 2221","OBJECT_ID":"1992-080A","EPOCH":"2026-03-06T02:13:39.990144","MEAN_MOTION":14.96183707,"ECCENTRICITY":0.00137395,"INCLINATION":82.5012,"RA_OF_ASC_NODE":282.5271,"ARG_OF_PERICENTER":199.5549,"MEAN_ANOMALY":160.5148,"EPHEMERIS_TYPE":0,"CLASSIFICATION_TYPE":"U","NORAD_CAT_ID":22236,"ELEMENT_SET_NO":999,"REV_AT_EPOCH":78025,"BSTAR":0.00017651318,"MEAN_MOTION_DOT":2.017e-5,"MEAN_MOTION_DDOT":0},{"OBJECT_NAME":"SL-16 R/B","OBJECT_ID":"1992-093B","EPOCH":"2026-03-06T06:38:23.632224","MEAN_MOTION":14.15448948,"ECCENTRICITY":0.00063674,"INCLINATION":71.024,"RA_OF_ASC_NODE":11.4299,"ARG_OF_PERICENTER":297.283,"MEAN_ANOMALY":62.7644,"EPHEMERIS_TYPE":0,"CLASSIFICATION_TYPE":"U","NORAD_CAT_ID":22285,"ELEMENT_SET_NO":999,"REV_AT_EPOCH":71267,"BSTAR":-7.1812888e-5,"MEAN_MOTION_DOT":-1.88e-6,"MEAN_MOTION_DDOT":0},{"OBJECT_NAME":"COSMOS 2228","OBJECT_ID":"1992-094A","EPOCH":"2026-03-06T05:53:08.414592","MEAN_MOTION":14.97170084,"ECCENTRICITY":0.00169893,"INCLINATION":82.5148,"RA_OF_ASC_NODE":240.6091,"ARG_OF_PERICENTER":316.959,"MEAN_ANOMALY":43.0303,"EPHEMERIS_TYPE":0,"CLASSIFICATION_TYPE":"U","NORAD_CAT_ID":22286,"ELEMENT_SET_NO":999,"REV_AT_EPOCH":77554,"BSTAR":0.00026582241,"MEAN_MOTION_DOT":3.105e-5,"MEAN_MOTION_DDOT":0},{"OBJECT_NAME":"SL-16 R/B","OBJECT_ID":"1993-016B","EPOCH":"2026-03-05T21:25:28.613856","MEAN_MOTION":14.15306792,"ECCENTRICITY":0.00115243,"INCLINATION":71.0063,"RA_OF_ASC_NODE":223.1556,"ARG_OF_PERICENTER":319.4689,"MEAN_ANOMALY":40.5575,"EPHEMERIS_TYPE":0,"CLASSIFICATION_TYPE":"U","NORAD_CAT_ID":22566,"ELEMENT_SET_NO":999,"REV_AT_EPOCH":70163,"BSTAR":0.0001609304,"MEAN_MOTION_DOT":2.66e-6,"MEAN_MOTION_DDOT":0}]
